[{"OBJECT_NAME":"STARLINK-2336","OBJECT_ID":"2021-021V","EPOCH":"2026-03-10T00:00:02.999808","MEAN_MOTION":15.40789494,"ECCENTRICITY":0.00013187,"INCLINATION":53.1591,"RA_OF_ASC_NODE":279.2752,"ARG_OF_PERICENTER":98.898,"MEAN_ANOMALY":179.4682,"EPHEMERIS_TYPE":0,"CLASSIFICATION_TYPE":"U","NORAD_CAT_ID":47879,"ELEMENT_SET_NO":999,"REV_AT_EPOCH":585,"BSTAR":0.0017865752,"MEAN_MOTION_DOT":0.00074598,"MEAN_MOTION_DDOT":0},{"OBJECT_NAME":"GHOST-3","OBJECT_ID":"2023-084AC","EPOCH":"2026-03-09T21:14:09.446784","MEAN_MOTION":15.44198134,"ECCENTRICITY":0.00064568,"INCLINATION":97.6062,"RA_OF_ASC_NODE":212.4847,"ARG_OF_PERICENTER":293.3516,"MEAN_ANOMALY":66.7052,"EPHEMERIS_TYPE":0,"CLASSIFICATION_TYPE":"U","NORAD_CAT_ID":56958,"ELEMENT_SET_NO":999,"REV_AT_EPOCH":15267,"BSTAR":0.00048344236,"MEAN_MOTION_DOT":0.00022139,"MEAN_MOTION_DDOT":0}]
